NORAD_CAT_ID,OBJECT_NAME,OBJECT_TYPE,EPOCH,MEAN_MOTION,ECCENTRICITY,INCLINATION,RA_OF_ASC_NODE,ARG_OF_PERICENTER,MEAN_ANOMALY,BSTAR,MEAN_MOTION_DOT,MEAN_MOTION_DDOT,TLE_LINE0,TLE_LINE1,TLE_LINE2,SEMIMAJOR_AXIS,PERIOD,APOGEE,PERIGEE,DECAYED
49154.0,STARLINK-3068,PAYLOAD,2022-09-03 03:12:43,14.98342774,0.0004961,69.9988,270.7417,258.6986,101.3616,9.0114e-05,9.83e-06,0.0,0 STARLINK-3068,1 49154U 21082AA  22246.13384214  .00000983  00000-0  90114-4 0  9997,2 49154  69.9988 270.7417 0004961 258.6986 101.3616 14.98342774 55283,6950.153,96.106,575.466,568.57,0.0
49154.0,STARLINK-3068,PAYLOAD,2022-09-03 11:13:23,14.98345765,0.0004979,69.9988,269.9001,258.0626,101.9975,0.00012382,1.385e-05,0.0,0 STARLINK-3068,1 49154U 21082AA  22246.46763834  .00001385  00000-0  12382-3 0  9999,2 49154  69.9988 269.9001 0004979 258.0626 101.9975 14.98345765 55339,6950.144,96.106,575.47,568.549,0.0
49154.0,STARLINK-3068,PAYLOAD,2022-09-03 14:25:39,14.9834626,0.0004992,69.9987,269.5633,258.0506,102.0093,0.00012037,1.344e-05,0.0,0 STARLINK-3068,1 49154U 21082AA  22246.60115684  .00001344  00000-0  12037-3 0  9991,2 49154  69.9987 269.5633 0004992 258.0506 102.0093 14.98346260 55353,6950.143,96.106,575.477,568.538,0.0
49154.0,STARLINK-3068,PAYLOAD,2022-09-04 03:14:44,14.98348276,0.0004871999999999,69.9988,268.2163,257.2589,102.8025,9.303e-06,1.8e-07,0.0,0 STARLINK-3068,1 49154U 21082AA  22247.13523253  .00000018  00000-0  93030-5 0  9996,2 49154  69.9988 268.2163 0004872 257.2589 102.8025 14.98348276 55438,6950.136,96.106,575.387,568.615,0.0
49154.0,STARLINK-3068,PAYLOAD,2022-09-04 09:39:17,14.98336604,0.0004823999999999,69.9989,267.5434,257.134,102.928,-0.00011143,-1.423e-05,0.0,0 STARLINK-3068,1 49154U 21082AA  22247.40228070 -.00001423  00000-0 -11143-3 0  9991,2 49154  69.9989 267.5434 0004824 257.1340 102.9280 14.98336604 55473,6950.172,96.107,575.39,568.685,0.0
49154.0,STARLINK-3068,PAYLOAD,2022-09-04 11:15:25,14.98336153,0.0004768,69.9989,267.3754,254.2973,105.766,-3.1957e-05,-4.75e-06,0.0,0 STARLINK-3068,1 49154U 21082AA  22247.46904054 -.00000475  00000-0 -31957-4 0  9992,2 49154  69.9989 267.3754 0004768 254.2973 105.7660 14.98336153 55486,6950.174,96.107,575.3530000000002,568.725,0.0
49154.0,STARLINK-3068,PAYLOAD,2022-09-05 09:41:17,14.98336887,0.00049,70.0001,265.0183,257.2563,102.8048,-2.5553e-06,-1.24e-06,0.0,0 STARLINK-3068,1 49154U 21082AA  22248.40367336 -.00000124  00000-0 -25553-5 0  9990,2 49154  70.0001 265.0183 0004900 257.2563 102.8048 14.98336887 55629,6950.172,96.107,575.442,568.631,0.0
49154.0,STARLINK-3068,PAYLOAD,2022-09-05 11:17:25,14.98336845,0.0004952,70.0,264.85,256.8518,103.2088,3.2979e-07,-8.9e-07,0.0,0 STARLINK-3068,1 49154U 21082AA  22248.47043291 -.00000089  00000-0  32979-6 0  9998,2 49154  70.0000 264.8500 0004952 256.8518 103.2088 14.98336845 55634,6950.172,96.107,575.4780000000002,568.595,0.0
49154.0,STARLINK-3068,PAYLOAD,2022-09-06 09:43:18,14.98335244,0.0004835,70.0,262.4934,256.4596,103.6024,0.00019536,2.239e-05,0.0,0 STARLINK-3068,1 49154U 21082AA  22249.40507203  .00002239  00000-0  19536-3 0  9999,2 49154  70.0000 262.4934 0004835 256.4596 103.6024 14.98335244 55772,6950.177,96.107,575.4019999999998,568.681,0.0
49154.0,STARLINK-3068,PAYLOAD,2022-09-06 11:19:26,14.983267800000002,0.000558,69.9997,262.3236,252.0826,107.9725,3.5321e-06,-5.1e-07,0.0,0 STARLINK-3068,1 49154U 21082AA  22249.47183376 -.00000051  00000-0  35321-5 0  9990,2 49154  69.9997 262.3236 0005580 252.0826 107.9725 14.98326780 55785,6950.203,96.107,575.946,568.19,0.0
49154.0,STARLINK-3068,PAYLOAD,2022-09-07 00:08:31,14.98321863,0.0004659,69.9998,260.9781,255.5608,104.5034,-0.0001208,-1.534e-05,0.0,0 STARLINK-3068,1 49154U 21082AA  22250.00592196 -.00001534  00000-0 -12080-3 0  9998,2 49154  69.9998 260.9781 0004659 255.5608 104.5034 14.98321863 55869,6950.218000000003,96.108,575.321,568.845,0.0
49154.0,STARLINK-3068,PAYLOAD,2022-09-07 09:45:20,14.98320672,0.000475,69.9999,259.9684,255.5826,104.4806,-8.3014e-05,-1.084e-05,0.0,0 STARLINK-3068,1 49154U 21082AA  22250.40648461 -.00001084  00000-0 -83014-4 0  9995,2 49154  69.9999 259.9684 0004750 255.5826 104.4806 14.98320672 55924,6950.222,96.108,575.388,568.785,0.0
49154.0,STARLINK-3068,PAYLOAD,2022-09-07 17:46:00,14.98322577,0.0004751,69.9987,259.1263,255.8427,104.2204,2.6975e-06,-6.1e-07,0.0,0 STARLINK-3068,1 49154U 21082AA  22250.74028916 -.00000061  00000-0  26975-5 0  9996,2 49154  69.9987 259.1263 0004751 255.8427 104.2204 14.98322577 55978,6950.215999999999,96.107,575.383,568.779,0.0
49154.0,STARLINK-3068,PAYLOAD,2022-09-08 11:23:29,14.98323864,0.0004707,69.9988,257.2749,255.2427,104.8211,1.8841e-05,1.32e-06,0.0,0 STARLINK-3068,1 49154U 21082AA  22251.47465265  .00000132  00000-0  18841-4 0  9999,2 49154  69.9988 257.2749 0004707 255.2427 104.8211 14.98323864 56089,6950.212,96.107,575.3480000000002,568.805,0.0
49154.0,STARLINK-3068,PAYLOAD,2022-09-08 17:48:02,14.98325681,0.0004753999999999,69.9988,256.6014,255.113,104.9502,4.0921e-06,-4.4e-07,0.0,0 STARLINK-3068,1 49154U 21082AA  22251.74169295 -.00000044  00000-0  40921-5 0  9991,2 49154  69.9988 256.6014 0004754 255.1130 104.9502 14.98325681 56127,6950.206,96.107,575.375,568.7669999999998,0.0
49154.0,STARLINK-3068,PAYLOAD,2022-09-09 09:49:23,14.98321801,0.000461,69.9996,254.9183,253.5355,106.5298,0.00019066,2.182e-05,0.0,0 STARLINK-3068,1 49154U 21082AA  22252.40930026  .00002182  00000-0  19066-3 0  9991,2 49154  69.9996 254.9183 0004610 253.5355 106.5298 14.98321801 56227,6950.218000000003,96.108,575.2869999999998,568.879,0.0
49154.0,STARLINK-3068,PAYLOAD,2022-09-09 13:01:39,14.98322132,0.0004641999999999,69.9996,254.5816,254.3929,105.6717,0.00019329,2.214e-05,0.0,0 STARLINK-3068,1 49154U 21082AA  22252.54282093  .00002214  00000-0  19329-3 0  9998,2 49154  69.9996 254.5816 0004642 254.3929 105.6717 14.98322132 56243,6950.217,96.108,575.309,568.856,0.0
49154.0,STARLINK-3068,PAYLOAD,2022-09-10 01:50:44,14.98325307,0.0004647,69.9995,253.235,254.0821,105.9826,0.00018411,2.104e-05,0.0,0 STARLINK-3068,1 49154U 21082AA  22253.07690224  .00002104  00000-0  18411-3 0  9995,2 49154  69.9995 253.2350 0004647 254.0821 105.9826 14.98325307 56324,6950.206999999999,96.107,575.302,568.8430000000002,0.0
49154.0,STARLINK-3068,PAYLOAD,2022-09-10 09:51:24,14.98326969,0.0004636,69.9996,252.3935,254.1788,105.886,0.00018877,2.1600000000000007e-05,0.0,0 STARLINK-3068,1 49154U 21082AA  22253.41070292  .00002160  00000-0  18877-3 0  9998,2 49154  69.9996 252.3935 0004636 254.1788 105.8860 14.98326969 56372,6950.2019999999975,96.107,575.289,568.845,0.0
49154.0,STARLINK-3068,PAYLOAD,2022-09-11 01:52:45,14.98330206,0.0004623999999999,69.9996,250.7099,253.7185,106.3466,0.00018127,2.071e-05,0.0,0 STARLINK-3068,1 49154U 21082AA  22254.07830279  .00002071  00000-0  18127-3 0  9999,2 49154  69.9996 250.7099 0004624 253.7185 106.3466 14.98330206 56476,6950.191999999999,96.107,575.271,568.8430000000002,0.0
49154.0,STARLINK-3068,PAYLOAD,2022-09-11 09:53:25,14.98329067,0.0004188,70.0013,249.8689,250.0044,110.0664,0.00012721,1.425e-05,0.0,0 STARLINK-3068,1 49154U 21082AA  22254.41210462  .00001425  00000-0  12721-3 0  9999,2 49154  70.0013 249.8689 0004188 250.0044 110.0664 14.98329067 56523,6950.196,96.107,574.972,569.15,0.0
49154.0,STARLINK-3068,PAYLOAD,2022-09-12 03:30:54,14.9833775,0.0004301999999999,70.0,248.017,252.601,107.4679,0.00026349,3.053e-05,0.0,0 STARLINK-3068,1 49154U 21082AA  22255.14645920  .00003053  00000-0  26349-3 0  9991,2 49154  70.0000 248.0170 0004302 252.6010 107.4679 14.98337750 56630,6950.169,96.107,575.024,569.044,0.0
49154.0,STARLINK-3068,PAYLOAD,2022-09-12 09:55:26,14.98336807,0.0004046,70.0015,247.3428,257.5339,102.5367,0.00018733,2.143e-05,0.0,0 STARLINK-3068,1 49154U 21082AA  22255.41349968  .00002143  00000-0  18733-3 0  9991,2 49154  70.0015 247.3428 0004046 257.5339 102.5367 14.98336807 56673,6950.172,96.107,574.849,569.225,0.0
49154.0,STARLINK-3068,PAYLOAD,2022-09-12 16:19:58,14.98343267,0.0004161,70.0017,246.669,254.3937,105.6763,0.00029947,3.483e-05,0.0,0 STARLINK-3068,1 49154U 21082AA  22255.68053455  .00003483  00000-0  29947-3 0  9990,2 49154  70.0017 246.6690 0004161 254.3937 105.6763 14.98343267 56712,6950.151999999999,96.106,574.909,569.125,0.0
49154.0,STARLINK-3068,PAYLOAD,2022-09-13 03:32:53,14.98352343,0.0003956,70.001,245.4917,248.8682,111.2054,2.4015e-05,1.94e-06,0.0,0 STARLINK-3068,1 49154U 21082AA  22256.14784553  .00000194  00000-0  24015-4 0  9990,2 49154  70.0010 245.4917 0003956 248.8682 111.2054 14.98352343 56788,6950.124,96.106,574.738,569.239,0.0
49154.0,STARLINK-3068,PAYLOAD,2022-09-13 09:57:26,14.98343056,0.0003358,70.0024,244.8182,256.1273,103.9512,0.00024821,2.871e-05,0.0,0 STARLINK-3068,1 49154U 21082AA  22256.41489186  .00002871  00000-0  24821-3 0  9992,2 49154  70.0024 244.8182 0003358 256.1273 103.9512 14.98343056 56827,6950.153,96.106,574.351,569.684,0.0
49154.0,STARLINK-3068,PAYLOAD,2022-09-14 09:59:27,14.98339276,0.0004451,69.9989,242.2932,252.0781,107.9893,1.4382e-05,7.8e-07,0.0,0 STARLINK-3068,1 49154U 21082AA  22257.41628493  .00000078  00000-0  14382-4 0  9998,2 49154  69.9989 242.2932 0004451 252.0781 107.9893 14.98339276 56974,6950.1640000000025,96.106,575.123,568.936,0.0
49154.0,STARLINK-3068,PAYLOAD,2022-09-14 16:24:00,14.98305412,0.0004112,69.999,241.62,252.3596,107.7114,0.00077404,9.149e-05,0.0,0 STARLINK-3068,1 49154U 21082AA  22257.68333768  .00009149  00000-0  77404-3 0  9996,2 49154  69.9990 241.6200 0004112 252.3596 107.7114 14.98305412 57013,6950.269,96.109,574.992,569.276,0.0
49154.0,STARLINK-3068,PAYLOAD,2022-09-15 05:13:02,14.98344788,0.0004385,69.999,240.2733,250.7264,109.3421,4.8658e-05,4.88e-06,0.0,0 STARLINK-3068,1 49154U 21082AA  22258.21739546  .00000488  00000-0  48658-4 0  9997,2 49154  69.9990 240.2733 0004385 250.7264 109.3421 14.98344788 57091,6950.147,96.106,575.06,568.965,0.0
